{"fetched_at":"2026-03-30T06:02:59Z","count":15439,"tles":[{"name":"STARLINK-31872","line1":"1 59922U 24106A   26087.74821069  .00003928  00000+0  15213-3 0  9996","line2":"2 59922  42.9977 225.2250 0001108 266.4057  93.6668 15.27589004103479","category":"Starlink"}]}